{
    "bounds": {
        "minlat": 54.050805,
        "minlon": 11.998369,
        "maxlat": 54.244512,
        "maxlon": 12.2954702
    },
    "id": 62405,
    "tags": {
        "TMC:cid_58:tabcd_1:Class": "Area",
        "TMC:cid_58:tabcd_1:LCLversion": "8.00",
        "TMC:cid_58:tabcd_1:LocationCode": "631",
        "admin_level": "6",
        "alt_name:ja": "\u30ed\u30b9\u30c8\u30af;\u30ed\u30b7\u30e5\u30c8\u30c3\u30af;\u30ed\u30b7\u30e5\u30c8\u30af",
        "border_type": "county",
        "boundary": "administrative",
        "de:amtlicher_gemeindeschluessel": "13003000",
        "de:place": "city",
        "de:regionalschluessel": "130030000000",
        "license_plate_code": "HRO",
        "name": "Rostock",
        "name:af": "Rostock",
        "name:ar": "\u0631\u0648\u0633\u062a\u0648\u0643",
        "name:ast": "Rostock",
        "name:az": "Rostok",
        "name:azb": "\u0631\u0648\u0633\u062a\u0648\u06a9",
        "name:be": "\u0420\u043e\u0301\u0441\u0442\u0430\u043a",
        "name:be-tarask": "\u0420\u043e\u0441\u0442\u0430\u043a",
        "name:bg": "\u0420\u043e\u0441\u0442\u043e\u043a",
        "name:br": "Rostock",
        "name:ca": "Rostock",
        "name:ceb": "Rostock",
        "name:cs": "Roztoky",
        "name:cy": "Rostock",
        "name:da": "Rostock",
        "name:de": "Rostock",
        "name:el": "\u03a1\u03cc\u03c3\u03c4\u03bf\u03ba",
        "name:en": "Rostock",
        "name:eo": "Rostoko",
        "name:es": "Rostock",
        "name:et": "Rostock",
        "name:eu": "Rostock",
        "name:fa": "\u0631\u0648\u0633\u062a\u0648\u06a9",
        "name:fi": "Rostock",
        "name:fr": "Rostock",
        "name:frr": "Rostock",
        "name:fy": "Rostock",
        "name:gd": "Rostock",
        "name:gl": "Rostock",
        "name:he": "\u05e8\u05d5\u05e1\u05d8\u05d5\u05e7",
        "name:hr": "Rostock",
        "name:hsb": "Roztok",
        "name:hu": "Rostock",
        "name:hy": "\u054c\u0578\u057d\u057f\u0578\u056f",
        "name:id": "Rostock",
        "name:ie": "Rostock",
        "name:io": "Rostock",
        "name:is": "Rostock",
        "name:it": "Rostock",
        "name:ja": "\u30ed\u30b9\u30c8\u30c3\u30af",
        "name:ka": "\u10e0\u10dd\u10e1\u10e2\u10dd\u10d9\u10d8",
        "name:kk": "\u0420\u043e\u0441\u0442\u043e\u043a",
        "name:ko": "\ub85c\uc2a4\ud1a0\ud06c",
        "name:ku": "Rostock",
        "name:ky": "\u0420\u043e\u0441\u0442\u043e\u043a",
        "name:la": "Rostochium",
        "name:lb": "Rostock",
        "name:lmo": "Roztoka",
        "name:lt": "Rostokas",
        "name:lv": "Rostoka",
        "name:mk": "\u0420\u043e\u0441\u0442\u043e\u043a",
        "name:mn": "\u0420\u043e\u0441\u0442\u043e\u043a",
        "name:mr": "\u0930\u094b\u0938\u094d\u091f\u094b\u0915",
        "name:nds": "Rostock",
        "name:nl": "Rostock",
        "name:nn": "Rostock",
        "name:no": "Rostock",
        "name:oc": "Rostock",
        "name:os": "\u0420\u043e\u0301\u0441\u0442\u043e\u043a",
        "name:pl": "Rostock",
        "name:pnb": "\u0631\u0648\u0633\u0679\u0627\u06a9",
        "name:prefix": "Hanse- und Universit\u00e4tsstadt",
        "name:pt": "Rostoque",
        "name:ro": "Rostock",
        "name:ru": "\u0420\u043e\u0301\u0441\u0442\u043e\u043a",
        "name:sc": "Rostock",
        "name:scn": "Rostock",
        "name:sco": "Rostock",
        "name:sh": "Rostok",
        "name:sk": "Rostock",
        "name:sl": "Rostock",
        "name:sq": "Rostoku",
        "name:sr": "\u0420\u043e\u0441\u0442\u043e\u043a",
        "name:stq": "Rostock",
        "name:sv": "Rostock",
        "name:sw": "Rostock",
        "name:th": "\u0e23\u0e2d\u0e2a\u0e15\u0e2d\u0e04",
        "name:tr": "Rostock",
        "name:tt": "\u0420\u043e\u0441\u0442\u043e\u043a",
        "name:uk": "\u0420\u043e\u0301\u0441\u0442\u043e\u043a",
        "name:uz": "Rostok",
        "name:vi": "Rostock",
        "name:vo": "Rostock",
        "name:war": "Rostock",
        "name:zh": "\u7f57\u65af\u6258\u514b",
        "name:zh-min-nan": "Rostock",
        "name:zh-yue": "\u7f85\u65af\u6258\u514b",
        "nickname": "Hansestadt",
        "nickname:af": "Hansestad",
        "nickname:de": "Hansestadt",
        "nickname:en": "hansa city",
        "nickname:eo": "havenurbo",
        "nickname:hsb": "hansowe m\u011bsto",
        "nickname:hu": "Hanza-v\u00e1ros",
        "nickname:it": "citt\u00e0 anseatica",
        "nickname:la": "urbs Hanseatica",
        "nickname:lv": "hanzas pils\u0113ta",
        "nickname:nds": "Hansestadt",
        "nickname:no": "hansastad",
        "nickname:ru": "\u0413\u0430\u043d\u0437\u0435\u0301\u0439\u0441\u043a\u0438\u0439 \u0433\u043e\u0301\u0440\u043e\u0434",
        "nickname:sc": "Tzitade Anse\u00e0tica",
        "nickname:sl": "hanzeatsko mesto",
        "nickname:vi": "th\u00e0nh ph\u1ed1 Hanse",
        "nickname:zh": "\u6c49\u8428\u57ce\u5e02",
        "official_name": "Hanse- und Universit\u00e4tsstadt Rostock",
        "official_name:af": "Hansestad Rostock",
        "official_name:de": "Hanse- und Universit\u00e4tsstadt Rostock",
        "official_name:lv": "Hanzas pils\u0113ta Rostoka",
        "official_name:nds": "Hansestadt Rostock",
        "official_name:ru": "\u0413\u0430\u043d\u0437\u0435\u0301\u0439\u0441\u043a\u0438\u0439 \u0433\u043e\u0301\u0440\u043e\u0434 \u0420\u043e\u0301\u0441\u0442\u043e\u043a",
        "official_name:sl": "Hanzeatsko mesto Rostock",
        "official_name:vi": "Th\u00e0nh ph\u1ed1 Hanse Rostock",
        "official_name:zh": "\u6c49\u8428\u57ce\u5e02\u7f57\u65af\u6258\u514b",
        "type": "boundary",
        "wikidata": "Q2861",
        "wikipedia": "de:Rostock"
    },
    "population": 207561.0,
    "lat": 54.0924445,
    "lon": 12.1286127
}