{
    "bounds": {
        "minlat": 51.1167565,
        "minlon": 6.6148193,
        "maxlat": 51.2356105,
        "maxlon": 6.798347
    },
    "id": 163307,
    "tags": {
        "TMC:cid_58:tabcd_1:Class": "Area",
        "TMC:cid_58:tabcd_1:LCLversion": "9.00",
        "TMC:cid_58:tabcd_1:LocationCode": "2008",
        "admin_level": "8",
        "boundary": "administrative",
        "de:amtlicher_gemeindeschluessel": "05162024",
        "de:place": "town",
        "de:regionalschluessel": "051620024024",
        "license_plate_code": "NE",
        "loc_name": "N\u00fcss",
        "name": "Neuss",
        "name:ar": "\u0646\u0648\u064a\u0633",
        "name:be": "\u041d\u043e\u0439\u0441",
        "name:bg": "\u041d\u043e\u0439\u0441",
        "name:ja": "\u30ce\u30a4\u30b9",
        "name:kk": "\u041d\u043e\u0439\u0441",
        "name:ko": "\ub178\uc774\uc2a4",
        "name:ksh": "N\u00fcss",
        "name:la": "Novaesium",
        "name:lt": "Noisas",
        "name:pnb": "\u0646\u06cc\u0648\u0633",
        "name:prefix": "Stadt",
        "name:ru": "\u041d\u043e\u0439\u0441",
        "name:sr": "\u041d\u043e\u0458\u0441",
        "name:zh": "\u8bfa\u4f0a\u65af",
        "old_name": "Neu\u00df",
        "population": "151875",
        "source": "Wikipedia, vorhandene Grenzen",
        "telephone_area_code": "02131",
        "type": "boundary",
        "website": "http://www.neuss.de",
        "wikidata": "Q2948",
        "wikipedia": "de:Neuss"
    },
    "population": 151875.0,
    "lat": 51.1981778,
    "lon": 6.6916476
}