{
    "bounds": {
        "minlat": 52.3051373,
        "minlon": 9.60443,
        "maxlat": 52.4543349,
        "maxlon": 9.9184259
    },
    "id": 59418,
    "tags": {
        "TMC:cid_58:tabcd_1:Class": "Area",
        "TMC:cid_58:tabcd_1:LCLversion": "8.00",
        "TMC:cid_58:tabcd_1:LocationCode": "452",
        "admin_level": "8",
        "boundary": "administrative",
        "de:amtlicher_gemeindeschluessel": "03241001",
        "de:regionalschluessel": "032410001001",
        "is_in:iso_3166_2": "DE-NI",
        "name": "Hannover",
        "name:ar": "\u0647\u0627\u0646\u0648\u0641\u0631",
        "name:be": "\u0413\u0430\u043d\u043e\u0432\u0435\u0440",
        "name:be-tarask": "\u0413\u0430\u043d\u043e\u0432\u044d\u0440",
        "name:bg": "\u0425\u0430\u043d\u043e\u0432\u0435\u0440",
        "name:bn": "\u09b9\u09be\u09a8\u09cb\u09ab\u09be\u09b0",
        "name:ce": "\u0425\u0430\u043d\u043e\u0432\u0435\u0440",
        "name:de": "Hannover",
        "name:el": "\u0391\u03bd\u03bd\u03cc\u03b2\u03b5\u03c1\u03bf",
        "name:en": "Hanover",
        "name:eo": "Hanovro",
        "name:fa": "\u0647\u0627\u0646\u0648\u0641\u0631",
        "name:fr": "Hanovre",
        "name:gd": "H\u00e0nobhar",
        "name:gl": "Hann\u00f3ver - Hannover",
        "name:he": "\u05d4\u05e0\u05d5\u05d1\u05e8",
        "name:hy": "\u0540\u0561\u0576\u0576\u0578\u057e\u0565\u0580",
        "name:ja": "\u30cf\u30ce\u30fc\u30d5\u30a1\u30fc",
        "name:ka": "\u10f0\u10d0\u10dc\u10dd\u10d5\u10d4\u10e0\u10d8",
        "name:kk": "\u0413\u0430\u043d\u043d\u043e\u0432\u0435\u0440",
        "name:ko": "\ud558\ub178\ubc84",
        "name:la": "Hannovera",
        "name:lt": "Hanoveris",
        "name:lv": "Hannovere",
        "name:mk": "\u0425\u0430\u043d\u043e\u0432\u0435\u0440",
        "name:mn": "\u0425\u0430\u043d\u043d\u043e\u0432\u0435\u0440",
        "name:mr": "\u0939\u093e\u0928\u094b\u092b\u0930",
        "name:ms": "Hanover",
        "name:nl": "Hannover",
        "name:os": "\u0413\u0430\u043d\u043d\u043e\u0432\u0435\u0440",
        "name:pl": "Hanower",
        "name:prefix": "Landeshauptstadt",
        "name:pt": "Han\u00f4ver",
        "name:ro": "Hanovra",
        "name:ru": "\u0413\u0430\u043d\u043d\u043e\u0432\u0435\u0440",
        "name:sq": "Hanoveri",
        "name:sr": "\u0425\u0430\u043d\u043e\u0432\u0435\u0440",
        "name:th": "\u0e2e\u0e31\u0e19\u0e42\u0e19\u0e40\u0e27\u0e2d\u0e23\u0e4c",
        "name:ug": "Hanof\u00e9r",
        "name:uk": "\u0413\u0430\u043d\u043d\u043e\u0432\u0435\u0440",
        "name:xh": "IHanoveri",
        "name:yi": "\u05d4\u05d0\u05e0\u05d0\u05d5\u05d5\u05e2\u05e8",
        "name:yo": "Hanover",
        "name:zh": "\u6c49\u8bfa\u5a01",
        "type": "boundary",
        "wikidata": "Q1715",
        "wikipedia": "de:Hannover"
    },
    "population": 525875.0,
    "lat": 52.3744779,
    "lon": 9.7385532
}