{
    "bounds": {
        "minlat": 53.7680103,
        "minlon": 10.5540402,
        "maxlat": 53.9938868,
        "maxlon": 10.9687156
    },
    "id": 27027,
    "tags": {
        "TMC:cid_58:tabcd_1:Class": "Area",
        "TMC:cid_58:tabcd_1:LCLversion": "8.00",
        "TMC:cid_58:tabcd_1:LocationCode": "5290",
        "admin_level": "6",
        "alt_name:et": "L\u00fc\u00fcbek",
        "alt_name:pl": "Lubika",
        "alt_name:pt": "Lubeque",
        "boundary": "administrative",
        "de:amtlicher_gemeindeschluessel": "01003000",
        "de:place": "city",
        "de:regionalschluessel": "010030000000",
        "is_in:iso_3166_2": "DE-SH",
        "name": "L\u00fcbeck",
        "name:af": "L\u00fcbeck",
        "name:an": "L\u00fcbeck",
        "name:ar": "\u0644\u0648\u0628\u064a\u0643",
        "name:arc": "\u0720\u0718\u0712\u0729",
        "name:ast": "L\u00fcbeck",
        "name:az": "L\u00fcbek",
        "name:azb": "\u0644\u0648\u0628\u06a9",
        "name:bar": "L\u00fcbeck",
        "name:be": "\u041b\u044e\u0431\u0435\u043a",
        "name:be-tarask": "\u041b\u044e\u0431\u044d\u043a",
        "name:bg": "\u041b\u044e\u0431\u0435\u043a",
        "name:br": "L\u00fcbeck",
        "name:bs": "L\u00fcbeck",
        "name:ca": "L\u00fcbeck",
        "name:ceb": "L\u00fcbeck",
        "name:co": "Lubecca",
        "name:cs": "Lubek",
        "name:csb": "Lubeka",
        "name:cv": "\u041b\u044e\u0431\u0435\u043a",
        "name:cy": "L\u00fcbeck",
        "name:da": "Lyb\u00e6k",
        "name:de": "L\u00fcbeck",
        "name:dsb": "L\u00fcbeck",
        "name:el": "\u039b\u03af\u03bc\u03c0\u03b5\u03ba",
        "name:en": "L\u00fcbeck",
        "name:eo": "Lubeko",
        "name:es": "L\u00fcbeck",
        "name:et": "L\u00fcbeck",
        "name:eu": "L\u00fcbeck",
        "name:fa": "\u0644\u0648\u0628\u06a9",
        "name:fi": "Lyypekki",
        "name:fr": "L\u00fcbeck",
        "name:frr": "L\u00fcbeck",
        "name:fy": "L\u00fcbeck",
        "name:ga": "L\u00fcbeck",
        "name:gd": "L\u00fcbeck",
        "name:gl": "L\u00fcbeck",
        "name:he": "\u05dc\u05d9\u05d1\u05e7",
        "name:hr": "L\u00fcbeck",
        "name:hsb": "Lubica",
        "name:hu": "L\u00fcbeck",
        "name:hy": "\u053c\u0575\u0578\u0582\u0562\u0565\u056f",
        "name:id": "L\u00fcbeck",
        "name:ie": "L\u00fcbeck",
        "name:io": "L\u00fcbeck",
        "name:is": "L\u00fdbika",
        "name:it": "Lubecca",
        "name:ja": "\u30ea\u30e5\u30fc\u30d9\u30c3\u30af",
        "name:jv": "L\u00fcbeck",
        "name:ka": "\u10da\u10d8\u10e3\u10d1\u10d4\u10d9\u10d8",
        "name:ko": "\ub93c\ubca0\ud06c",
        "name:la": "Lubeca",
        "name:lb": "L\u00fcbeck",
        "name:lmo": "L\u00fcbeca",
        "name:lt": "Liubekas",
        "name:lv": "L\u012bbeka",
        "name:mk": "\u041b\u0438\u0431\u0435\u043a",
        "name:mr": "\u0932\u094d\u092f\u0941\u092c\u0947\u0915",
        "name:nds": "L\u00fcbeek",
        "name:nds-nl": "Lubeek",
        "name:nl": "L\u00fcbeck",
        "name:nn": "L\u00fcbeck",
        "name:no": "L\u00fcbeck",
        "name:oc": "L\u00fcbeck",
        "name:os": "\u041b\u044e\u0431\u0435\u043a",
        "name:pl": "Lubeka",
        "name:pms": "Lub\u00ebcca",
        "name:pnb": "\u0644\u0648\u0628\u06a9",
        "name:prefix": "Hansestadt",
        "name:pt": "Lubeca",
        "name:ro": "L\u00fcbeck",
        "name:ru": "\u041b\u044e\u0301\u0431\u0435\u043a",
        "name:sco": "L\u00fcbeck",
        "name:sh": "Libek",
        "name:sk": "L\u00fcbeck",
        "name:sl": "L\u00fcbeck",
        "name:sla": "Liubice",
        "name:sq": "Lybek",
        "name:sr": "\u041b\u0438\u0431\u0435\u043a",
        "name:stq": "L\u00fcbeck",
        "name:sv": "Lybeck",
        "name:sw": "L\u00fcbeck",
        "name:szl": "L\u00fcbeck",
        "name:th": "\u0e25\u0e37\u0e2d\u0e40\u0e1a\u0e04",
        "name:tr": "L\u00fcbeck",
        "name:tt": "\u041b\u04af\u0431\u0435\u043a",
        "name:tw": "L\u00fcbeck",
        "name:uk": "\u041b\u044e\u0301\u0431\u0435\u043a",
        "name:uz": "Lyubek",
        "name:vec": "Lubeca",
        "name:vi": "L\u00fcbeck",
        "name:vo": "L\u00fcbeck",
        "name:war": "L\u00fcbeck",
        "name:zh": "\u5415\u8d1d\u514b",
        "name:zh-min-nan": "L\u00fcbeck",
        "name:zh-yue": "\u5442\u78a7\u514b",
        "nickname": "Hansestadt",
        "nickname:af": "Hansestad",
        "nickname:an": "Ciudat Hanseatica",
        "nickname:ast": "Ciud\u00e1 Hanse\u00e1tica",
        "nickname:az": "Hanzey \u015f\u0259h\u0259ri",
        "nickname:bar": "Hansestod",
        "nickname:be": "\u0413\u0430\u043d\u0437\u0435\u0439\u0441\u043a\u0456 \u0433\u043e\u0440\u0430\u0434",
        "nickname:be-tarask": "\u0413\u0430\u043d\u0437\u0435\u0439\u0441\u043a\u0456 \u0433\u043e\u0440\u0430\u0434",
        "nickname:ca": "Ciutat Lliure i Hanse\u00e0tica",
        "nickname:cs": "hanzovn\u00ed m\u011bsto",
        "nickname:de": "Hansestadt",
        "nickname:en": "Hanseatic city",
        "nickname:eo": "Hanso-urbo",
        "nickname:es": "ciudad hanse\u00e1tica",
        "nickname:et": "hansalinn",
        "nickname:eu": "Hansar Hiria",
        "nickname:fr": "ville hans\u00e9atique",
        "nickname:fy": "H\u00e2nzest\u00ead",
        "nickname:gl": "Cidade Hanse\u00e1tica",
        "nickname:hsb": "hansowe m\u011bsto",
        "nickname:id": "Kota Hanseatik",
        "nickname:it": "libera citt\u00e0 anseatica",
        "nickname:ja": "\u30cf\u30f3\u30b6\u90fd\u5e02",
        "nickname:jv": "Kota Hanseatik",
        "nickname:la": "urbs Hansica",
        "nickname:lb": "Hansestad",
        "nickname:lt": "Hanzos s\u0105jungos miestas",
        "nickname:mk": "\u0425\u0430\u043d\u0437\u0438\u043d \u0433\u0440\u0430\u0434",
        "nickname:nds": "Hansestadt",
        "nickname:nds-nl": "Hanzestad",
        "nickname:nl": "Hanzestad",
        "nickname:no": "Hansestadt",
        "nickname:pt": "Cidade Hanse\u00e1tica",
        "nickname:ro": "Ora\u0219 al Hansei",
        "nickname:sco": "Hanseatic Ceety",
        "nickname:sk": "hanzov\u00e9 mesto",
        "nickname:th": "\u0e19\u0e04\u0e23\u0e2e\u0e31\u0e19\u0e40\u0e0b\u0e2d\u0e41\u0e2b\u0e48\u0e07",
        "nickname:vec": "Libera sit\u00e0 anseatica",
        "nickname:vi": "th\u00e0nh ph\u1ed1 Hanse",
        "nickname:zh": "\u6c49\u8428\u540c\u76df\u57ce\u5e02",
        "nickname:zh-yue": "\u6f22\u838e\u57ce\u5e02",
        "official_name": "Hansestadt L\u00fcbeck",
        "official_name:af": "Hansestad L\u00fcbeck",
        "official_name:an": "Ciudat Hanseatica de L\u00fcbeck",
        "official_name:ast": "Ciud\u00e1 Hanse\u00e1tica de L\u00fcbeck",
        "official_name:az": "Hanzey \u015f\u0259h\u0259ri L\u00fcbek",
        "official_name:bar": "Hansestod L\u00fcbeck",
        "official_name:be": "\u0413\u0430\u043d\u0437\u0435\u0439\u0441\u043a\u0456 \u0433\u043e\u0440\u0430\u0434 \u041b\u044e\u0431\u0435\u043a",
        "official_name:be-tarask": "\u0413\u0430\u043d\u0437\u0435\u0439\u0441\u043a\u0456 \u0433\u043e\u0440\u0430\u0434 \u041b\u044e\u0431\u044d\u043a",
        "official_name:ca": "Ciutat Lliure i Hanse\u00e0tica de L\u00fcbeck",
        "official_name:cv": "\u041b\u044e\u0431\u0435\u043a \u0445\u0430\u043d\u0437\u0430 \u0445\u0443\u043b\u0438",
        "official_name:da": "Hansestaden Lyb\u00e6k",
        "official_name:de": "Hansestadt L\u00fcbeck",
        "official_name:en": "Hanseatic City of L\u00fcbeck",
        "official_name:eo": "Hanso-urbo Lubeko",
        "official_name:es": "Ciudad Hanse\u00e1tica de L\u00fcbeck",
        "official_name:et": "Hansalinn L\u00fcbeck",
        "official_name:eu": "L\u00fcbeckeko Hansar Hiria",
        "official_name:fy": "H\u00e2nzest\u00ead L\u00fcbeck",
        "official_name:gl": "Cidade Hanse\u00e1tica de L\u00fcbeck",
        "official_name:hr": "Hanzeatski grad L\u00fcbeck",
        "official_name:hsb": "Hansowe m\u011bsto Lubica",
        "official_name:id": "Kota Hanseatik L\u00fcbeck",
        "official_name:it": "libera citt\u00e0 anseatica di Lubecca",
        "official_name:ja": "\u30cf\u30f3\u30b6\u90fd\u5e02\u30ea\u30e5\u30fc\u30d9\u30c3\u30af",
        "official_name:jv": "Kota Hanseatik L\u00fcbeck",
        "official_name:la": "Lubeca urbs Hansica",
        "official_name:lb": "Hansestad L\u00fcbeck",
        "official_name:mk": "\u0425\u0430\u043d\u0437\u0438\u043d \u0433\u0440\u0430\u0434 \u041b\u0438\u0431\u0435\u043a",
        "official_name:nds-nl": "Hanzestad Lubeek",
        "official_name:nl": "Hanzestad L\u00fcbeck",
        "official_name:no": "Hansestadt L\u00fcbeck",
        "official_name:pt": "Cidade Hanse\u00e1tica de L\u00fcbeck",
        "official_name:sco": "Hanseatic Ceety o L\u00fcbeck",
        "official_name:th": "\u0e19\u0e04\u0e23\u0e2e\u0e31\u0e19\u0e40\u0e0b\u0e2d\u0e41\u0e2b\u0e48\u0e07\u0e25\u0e37\u0e2d\u0e40\u0e1a\u0e04",
        "official_name:tr": "Hanseatik D\u00f6nemin L\u00fcbeck \u015eehri",
        "official_name:vi": "Th\u00e0nh ph\u1ed1 Hanse L\u00fcbeck",
        "official_name:zh": "\u6c49\u8428\u540c\u76df\u57ce\u5e02\u5415\u8d1d\u514b",
        "official_name:zh-yue": "\u6f22\u838e\u57ce\u5e02\u5442\u78a7\u514b",
        "place": "city",
        "population": "212958",
        "type": "boundary",
        "wikidata": "Q2843",
        "wikipedia": "de:L\u00fcbeck"
    },
    "population": 212958.0,
    "lat": 53.866444,
    "lon": 10.684738
}