{
    "bounds": {
        "minlat": 52.33826,
        "minlon": 13.08835,
        "maxlat": 52.67551,
        "maxlon": 13.76116
    },
    "id": 62422,
    "tags": {
        "ISO3166-2": "DE-BE",
        "TMC:cid_58:tabcd_1:Class": "Area",
        "TMC:cid_58:tabcd_1:LCLversion": "12.0",
        "TMC:cid_58:tabcd_1:LocationCode": "266",
        "admin_level": "4",
        "alt_name:vi": "B\u00e9c-lin",
        "boundary": "administrative",
        "capital": "yes",
        "contact:facebook": "http://www.facebook.com/Berlin",
        "contact:website": "http://www.berlin.de",
        "de:amtlicher_gemeindeschluessel": "11000000",
        "de:place": "city",
        "de:place:note": "Kreisfreie Stadt",
        "de:regionalschluessel": "110000000000",
        "geographical_region": "Barnim;Berliner Urstromtal;Teltow;Nauener Platte",
        "name": "Berlin",
        "name:af": "Berlyn",
        "name:als": "Berlin",
        "name:am": "\u1260\u122d\u120a\u1295",
        "name:an": "Berl\u00edn",
        "name:ang": "Berlin",
        "name:ar": "\u0628\u0631\u0644\u064a\u0646",
        "name:arc": "\u0712\u072a\u0720\u071d\u0722",
        "name:ast": "Berl\u00edn",
        "name:az": "Berlin",
        "name:ba": "\u0411\u0435\u0440\u043b\u0438\u043d",
        "name:bar": "Berlin",
        "name:bat-smg": "Berl\u012bns",
        "name:be": "\u0411\u0435\u0440\u043b\u0456\u043d",
        "name:be-tarask": "\u0411\u044d\u0440\u043b\u0456\u043d",
        "name:bg": "\u0411\u0435\u0440\u043b\u0438\u043d",
        "name:bi": "Berlin",
        "name:bn": "\u09ac\u09be\u09b0\u09cd\u09b2\u09bf\u09a8",
        "name:bo": "\u0f54\u0f7a\u0f0b\u0f63\u0f72\u0f44\u0f0b",
        "name:br": "Berlin",
        "name:bs": "Berlin",
        "name:ca": "Berl\u00edn",
        "name:cbk-zam": "Berl\u00edn",
        "name:crh": "Berlin",
        "name:cs": "Berl\u00edn",
        "name:csb": "Berl\u00ebno",
        "name:cu": "\u0411\u0435\u0440\u043b\u0438\u043d\u044a",
        "name:cv": "\u0411\u0435\u0440\u043b\u0438\u043d",
        "name:cy": "Berlin",
        "name:da": "Berlin",
        "name:de": "Berlin",
        "name:diq": "Berlin",
        "name:dsb": "Barli\u0144",
        "name:el": "\u0392\u03b5\u03c1\u03bf\u03bb\u03af\u03bd\u03bf",
        "name:en": "Berlin",
        "name:eo": "Berlino",
        "name:es": "Berl\u00edn",
        "name:et": "Berliin",
        "name:eu": "Berlin",
        "name:fa": "\u0628\u0631\u0644\u06cc\u0646",
        "name:fi": "Berliini",
        "name:fo": "Berlin",
        "name:fr": "Berlin",
        "name:frp": "B\u00e8rlin",
        "name:fur": "Berlin",
        "name:fy": "Berlyn",
        "name:ga": "Beirl\u00edn",
        "name:gd": "Berlin",
        "name:gl": "Berl\u00edn",
        "name:gn": "Berlin",
        "name:gv": "Berleen",
        "name:haw": "Pelelina",
        "name:he": "\u05d1\u05e8\u05dc\u05d9\u05df",
        "name:hi": "\u092c\u0930\u094d\u0932\u093f\u0928",
        "name:hr": "Berlin",
        "name:hsb": "Berlin",
        "name:ht": "B\u00e8len",
        "name:hu": "Berlin",
        "name:hy": "\u0532\u0565\u057c\u056c\u056b\u0576",
        "name:ia": "Berlin",
        "name:id": "Berlin",
        "name:ie": "Berlin",
        "name:ilo": "Berlin, Alemania",
        "name:io": "Berlin",
        "name:is": "Berl\u00edn",
        "name:it": "Berlino",
        "name:ja": "\u30d9\u30eb\u30ea\u30f3",
        "name:jbo": "berlin",
        "name:jv": "Berlin",
        "name:ka": "\u10d1\u10d4\u10e0\u10da\u10d8\u10dc\u10d8",
        "name:kab": "Berlin",
        "name:kk": "\u0411\u0435\u0440\u043b\u0438\u043d",
        "name:ko": "\ubca0\ub97c\ub9b0",
        "name:ksh": "B\u00e4lliin",
        "name:ku": "Berl\u00een",
        "name:kv": "\u0411\u0435\u0440\u043b\u0438\u043d",
        "name:kw": "Berlin",
        "name:la": "Berolinum",
        "name:lb": "Berlin",
        "name:lg": "Berlin",
        "name:li": "Berlien",
        "name:lij": "Berlin",
        "name:lmo": "Berlin",
        "name:ln": "Berlin",
        "name:lt": "Berlynas",
        "name:lv": "Berl\u012bne",
        "name:mg": "Berlin",
        "name:mk": "\u0411\u0435\u0440\u043b\u0438\u043d",
        "name:ml": "\u0d2c\u0d46\u0d30\u0d4d\u200d\u0d32\u0d3f\u0d28\u0d4d\u200d",
        "name:mn": "\u0411\u0435\u0440\u043b\u0438\u043d",
        "name:mr": "\u092c\u0930\u094d\u0932\u093f\u0928",
        "name:ms": "Berlin",
        "name:mt": "Berlin",
        "name:myv": "\u0411\u0435\u0440\u043b\u0438\u043d \u043e\u0448",
        "name:na": "Berlin",
        "name:nah": "Berlin",
        "name:nap": "Berlino",
        "name:nds": "Berlin",
        "name:nl": "Berlijn",
        "name:nn": "Berlin",
        "name:no": "Berlin",
        "name:nov": "Berlin",
        "name:nrm": "B\u00e8rl\u00een",
        "name:oc": "Berlin",
        "name:os": "\u0411\u0435\u0440\u043b\u0438\u043d",
        "name:pam": "Berlin",
        "name:pdc": "Berlin, Deitschland",
        "name:pl": "Berlin",
        "name:pms": "Berlin",
        "name:prefix:city": "Kreisfreie Stadt",
        "name:prefix:state": "Land",
        "name:pt": "Berlim",
        "name:qu": "Berlin",
        "name:rm": "Berlin",
        "name:rmy": "Berlin",
        "name:ro": "Berlin",
        "name:roa-rup": "Berlin",
        "name:roa-tara": "Berline",
        "name:ru": "\u0411\u0435\u0440\u043b\u0438\u043d",
        "name:sah": "\u0411\u0435\u0440\u043b\u0438\u043d",
        "name:sc": "Berlinu",
        "name:scn": "Birlinu",
        "name:sco": "Berlin",
        "name:se": "Berlin",
        "name:sh": "Berlin",
        "name:short": "BE",
        "name:sk": "Berl\u00edn",
        "name:sl": "Berlin",
        "name:so": "Berlin",
        "name:sq": "Berlini",
        "name:sr": "\u0411\u0435\u0440\u043b\u0438\u043d",
        "name:stq": "Berlin",
        "name:su": "Berliini",
        "name:sv": "Berlin",
        "name:sw": "Berlin",
        "name:szl": "Berlin",
        "name:ta": "\u0baa\u0bc6\u0bb0\u0bcd\u0bb2\u0bbf\u0ba9\u0bcd",
        "name:te": "\u0c2c\u0c46\u0c30\u0c4d\u0c32\u0c3f\u0c28\u0c4d",
        "name:tet": "Berl\u00edn",
        "name:tg": "\u0411\u0435\u0440\u043b\u0438\u043d",
        "name:th": "\u0e40\u0e1a\u0e2d\u0e23\u0e4c\u0e25\u0e34\u0e19",
        "name:tl": "Berlin",
        "name:tpi": "Berlin",
        "name:tr": "Berlin",
        "name:tt": "\u0411\u0435\u0440\u043b\u0438\u043d",
        "name:ty": "Berlin",
        "name:tzl": "Berlin",
        "name:uk": "\u0411\u0435\u0440\u043b\u0456\u043d",
        "name:ur": "\u0628\u0631\u0644\u0646",
        "name:uz": "Berlin",
        "name:vec": "Berlin",
        "name:vi": "Berlin",
        "name:vls": "Berlyn",
        "name:wo": "Berlin",
        "name:yi": "\u05d1\u05e2\u05e8\u05dc\u05d9\u05df",
        "name:yo": "Berlin",
        "name:zh": "\u67cf\u6797",
        "name:zh-classical": "\u67cf\u6797",
        "name:zh-min-nan": "Berlin",
        "name:zh-yue": "\u67cf\u6797",
        "name:zu": "Berlin",
        "official_name": "Stadtstaat Berlin",
        "official_status": "Land",
        "official_status:de": "Land",
        "official_status:en": "State",
        "official_status:ru": "\u0437\u0435\u043c\u043b\u044f",
        "old_name:vi": "B\u00e1 Linh",
        "place": "state",
        "population": "3440441",
        "rank": "0",
        "ref": "B",
        "source:population": "http://www.statistik-berlin-brandenburg.de/Publikationen/Stat_Berichte/2010/SB_A1-1_A2-4_q01-10_BE.pdf 2010-10-01",
        "state_code": "BE",
        "type": "boundary",
        "wikidata": "Q64",
        "wikipedia": "de:Berlin"
    },
    "population": 3531201.0,
    "lat": 52.5170365,
    "lon": 13.3888599
}