{
    "bounds": {
        "minlat": 50.974937,
        "minlon": 13.5793237,
        "maxlat": 51.1777202,
        "maxlon": 13.9660626
    },
    "id": 191645,
    "tags": {
        "TMC:cid_58:tabcd_1:Class": "Area",
        "TMC:cid_58:tabcd_1:LCLversion": "8.00",
        "TMC:cid_58:tabcd_1:LocationCode": "390",
        "admin_level": "6",
        "boundary": "administrative",
        "de:amtlicher_gemeindeschluessel": "14612000",
        "de:place": "city",
        "de:regionalschluessel": "146120000000",
        "is_in:iso_3166_2": "DE-SN",
        "name": "Dresden",
        "name:ar": "\u062f\u0631\u0633\u062f\u0646",
        "name:cz": "Dr\u00e1\u017e\u010fany",
        "name:de": "Dresden",
        "name:hsb": "Drje\u017ed\u017aany",
        "name:ko": "\ub4dc\ub808\uc2a4\ub374",
        "name:pl": "Drezno",
        "name:prefix": "Stadt",
        "name:ru": "\u0414\u0440\u0435\u0437\u0434\u0435\u043d",
        "name:sk": "Dr\u00e1\u017e\u010fany",
        "place": "city",
        "source": "Kommunale Statistikstelle Dresden",
        "type": "boundary",
        "wikidata": "Q1731",
        "wikipedia": "de:Dresden"
    },
    "population": 538678.0,
    "lat": 51.0493286,
    "lon": 13.7381437
}