{
    "bounds": {
        "minlat": 50.0155435,
        "minlon": 8.4718253,
        "maxlat": 50.2271408,
        "maxlon": 8.8004716
    },
    "id": 62400,
    "tags": {
        "TMC:cid_58:tabcd_1:Class": "Area",
        "TMC:cid_58:tabcd_1:LCLversion": "9.00",
        "TMC:cid_58:tabcd_1:LocationCode": "414",
        "admin_level": "6",
        "boundary": "administrative",
        "de:amtlicher_gemeindeschluessel": "06412000",
        "de:place": "city",
        "de:regionalschluessel": "064120000000",
        "name": "Frankfurt am Main",
        "name:ca": "Frankfurt del Main",
        "name:de": "Frankfurt am Main",
        "name:fr": "Francfort-sur-le-Main",
        "name:ko": "\ud504\ub791\ud06c\ud478\ub974\ud2b8\uc554\ub9c8\uc778",
        "name:prefix": "Stadt",
        "name:ru": "\u0424\u0440\u0430\u043d\u043a\u0444\u0443\u0440\u0442-\u043d\u0430-\u041c\u0430\u0439\u043d\u0435",
        "short_name": "Frankfurt",
        "type": "boundary",
        "wikidata": "Q1794",
        "wikipedia": "de:Frankfurt am Main"
    },
    "population": 701350.0,
    "lat": 50.1106444,
    "lon": 8.6820917
}