{
    "bounds": {
        "minlat": 47.9035777,
        "minlon": 7.6620055,
        "maxlat": 48.0710579,
        "maxlon": 7.9308444
    },
    "id": 62768,
    "tags": {
        "TMC:cid_58:tabcd_1:Class": "Area",
        "TMC:cid_58:tabcd_1:LCLversion": "8.00",
        "TMC:cid_58:tabcd_1:LocationCode": "417",
        "admin_level": "6",
        "boundary": "administrative",
        "contact:website": "http://www.freiburg.de",
        "de:amtlicher_gemeindeschluessel": "08311000",
        "de:place": "city",
        "de:regionalschluessel": "083110000000",
        "name": "Freiburg im Breisgau",
        "name:ar": "\u0641\u0631\u0627\u064a\u0628\u0648\u0631\u063a",
        "name:de": "Freiburg im Breisgau",
        "name:fr": "Fribourg-en-Brisgau",
        "name:gsw": "Friburg im Brisgau",
        "name:prefix": "Stadt",
        "name:ru": "\u0424\u0440\u0430\u0439\u0431\u0443\u0440\u0433",
        "population": "226393",
        "type": "boundary",
        "wikidata": "Q2833",
        "wikipedia": "de:Freiburg im Breisgau"
    },
    "population": 220286.0,
    "lat": 47.9960901,
    "lon": 7.8494005
}