{
    "bounds": {
        "minlat": 48.2581444,
        "minlon": 10.7633615,
        "maxlat": 48.4586541,
        "maxlon": 10.9593328
    },
    "id": 62407,
    "tags": {
        "TMC:cid_58:tabcd_1:Class": "Area",
        "TMC:cid_58:tabcd_1:LCLversion": "8.00",
        "TMC:cid_58:tabcd_1:LocationCode": "811",
        "admin_level": "6",
        "boundary": "administrative",
        "de:amtlicher_gemeindeschluessel": "09761000",
        "de:place": "city",
        "de:regionalschluessel": "097610000000",
        "ele": "494",
        "is_in": "Schwaben,Bayern,Bundesrepublik Deutschland,Europe",
        "name": "Augsburg",
        "name:ar": "\u0622\u0648\u063a\u0633\u0628\u0648\u0631\u063a",
        "name:br": "Augsburg",
        "name:de": "Augsburg",
        "name:en": "Augsburg",
        "name:es": "Augsburgo",
        "name:eu": "Augsburg",
        "name:it": "Augusta",
        "name:ja": "\u30a2\u30a6\u30af\u30b9\u30d6\u30eb\u30af",
        "name:la": "Augusta Vindelicorum",
        "name:lv": "Augsburga",
        "name:prefix": "Kreisfreie Stadt",
        "name:ru": "\u0410\u0443\u0433\u0441\u0431\u0443\u0440\u0433",
        "name:sr": "\u0410\u0443\u0433\u0441\u0431\u0443\u0440\u0433",
        "name:suffix:en": "(district city)",
        "name:suffix:fr": "(ville-arrondissement)",
        "name:th": "\u0e40\u0e2d\u0e32\u0e01\u0e4c\u0e2a\u0e1a\u0e39\u0e23\u0e4c\u0e01",
        "name:tr": "Augsburg",
        "name:uk": "\u0410\u0443\u0433\u0441\u0431\u0443\u0440\u0433",
        "name:zh": "\u5965\u683c\u65af\u5821",
        "note": "Kreisfreie Stadt Augsburg; Relation mit Adminlevel 8 gel\u00f6scht, Informationen zusammengefasst",
        "population": "286374",
        "type": "boundary",
        "wikidata": "Q2749",
        "wikipedia": "de:Augsburg"
    },
    "population": 293415.0,
    "lat": 48.3668041,
    "lon": 10.8986971
}