{
    "bounds": {
        "minlat": 44.8107826,
        "minlon": -0.6386987,
        "maxlat": 44.9161806,
        "maxlon": -0.5336838
    },
    "id": 105270,
    "tags": {
        "addr:postcode": "33000",
        "admin_level": "8",
        "boundary": "administrative",
        "capital": "4",
        "name": "Bordeaux",
        "name:am": "\u1266\u122d\u12f6",
        "name:ar": "\u0628\u0648\u0631\u062f\u0648",
        "name:ast": "Bordeos",
        "name:az": "Bordo",
        "name:be": "\u0411\u0430\u0440\u0434\u043e",
        "name:bg": "\u0411\u043e\u0440\u0434\u043e",
        "name:br": "Bourdel",
        "name:ca": "Bordeus",
        "name:ce": "\u0411\u043e\u0440\u0434\u043e",
        "name:el": "\u039c\u03c0\u03bf\u03c1\u03bd\u03c4\u03ce",
        "name:es": "Burdeos",
        "name:eu": "Bordele",
        "name:ext": "Burdeus",
        "name:fa": "\u0628\u0648\u0631\u062f\u0648",
        "name:fr": "Bordeaux",
        "name:frp": "Bord\u00f4",
        "name:gl": "Bordeos",
        "name:he": "\u05d1\u05d5\u05e8\u05d3\u05d5",
        "name:hi": "\u092c\u094b\u0930\u094d\u0926\u094b",
        "name:hy": "\u0532\u0578\u0580\u0564\u0578",
        "name:ja": "\u30dc\u30eb\u30c9\u30fc",
        "name:ka": "\u10d1\u10dd\u10e0\u10d3\u10dd",
        "name:kg": "Bordo",
        "name:kk": "\u0411\u043e\u0440\u0434\u043e",
        "name:kn": "\u0cac\u0cca\u0cb0\u0ccd\u0ca1\u0ccb",
        "name:ko": "\ubcf4\ub974\ub3c4",
        "name:la": "Burdigala",
        "name:lo": "\u0e9a\u0ead\u0e81\u0ec2\u0e94",
        "name:lt": "Bordo",
        "name:lv": "Bordo",
        "name:mk": "\u0411\u043e\u0440\u0434\u043e",
        "name:mr": "\u092c\u094b\u0930\u094d\u0926\u0942",
        "name:mzn": "\u0628\u0648\u0631\u062f\u0648",
        "name:oc": "Bord\u00e8u",
        "name:os": "\u0411\u043e\u0440\u0434\u043e",
        "name:pa": "\u0a2c\u0a4b\u0a30\u0a26\u0a4b",
        "name:pms": "Bord\u00f2",
        "name:pnb": "\u0628\u0648\u0631\u0688\u0648",
        "name:pt": "Bord\u00e9us",
        "name:ru": "\u0411\u043e\u0440\u0434\u043e",
        "name:sr": "\u0411\u043e\u0440\u0434\u043e",
        "name:stq": "Bord\u00e8u",
        "name:ta": "\u0baa\u0bca\u0bb0\u0bcd\u0ba4\u0bcb",
        "name:th": "\u0e1a\u0e2d\u0e23\u0e4c\u0e42\u0e14",
        "name:tl": "Burdeos",
        "name:uk": "\u0411\u043e\u0440\u0434\u043e",
        "name:ur": "\u0628\u0648\u0631\u0688\u0648",
        "name:vec": "Bord\u00f2",
        "name:yi": "\u05d1\u05d0\u05e8\u05d3\u05d0",
        "name:zh": "\u6ce2\u5c14\u591a",
        "population": "241287",
        "population:date": "2009",
        "postal_code": "33000;33100;33300;33800",
        "ref:FR:SIREN": "213300635",
        "ref:INSEE": "33063",
        "source:population": "INSEE 2012",
        "source:postal_code": "La Poste - 11/2014",
        "type": "boundary",
        "website": "http://www.bordeaux.fr/",
        "wikidata": "Q1479",
        "wikipedia": "fr:Bordeaux"
    },
    "population": 241287.0,
    "lat": 44.841225,
    "lon": -0.5800364
}