{
    "bounds": {
        "minlat": 47.2862577,
        "minlon": 4.9624588,
        "maxlat": 47.377486,
        "maxlon": 5.1020598
    },
    "id": 74090,
    "tags": {
        "addr:postcode": "21000",
        "admin_level": "8",
        "boundary": "administrative",
        "capital": "4",
        "name": "Dijon",
        "name:ar": "\u062f\u064a\u062c\u0648\u0646",
        "name:fr": "Dijon",
        "name:ja": "\u30c7\u30a3\u30b8\u30e7\u30f3",
        "name:la": "Divio",
        "name:oc": "Dijon",
        "name:ru": "\u0414\u0438\u0436\u043e\u043d",
        "name:sr": "\u0414\u0438\u0436\u043e\u043d",
        "name:uk": "\u0414\u0456\u0436\u043e\u043d",
        "population": "151672",
        "population:date": "2009",
        "ref:FR:SIREN": "212102313",
        "ref:INSEE": "21231",
        "source:addr:postcode": "source of postcode is from osm nodes",
        "source:population": "INSEE 2011",
        "type": "boundary",
        "wikidata": "Q7003",
        "wikipedia": "fr:Dijon"
    },
    "population": 151672.0,
    "lat": 47.3215806,
    "lon": 5.0414701
}