{
    "bounds": {
        "minlat": 47.927977,
        "minlon": 0.1362825,
        "maxlat": 48.0358733,
        "maxlon": 0.2550938
    },
    "id": 107435,
    "tags": {
        "addr:postcode": "72000;72100",
        "admin_level": "8",
        "boundary": "administrative",
        "capital": "6",
        "name": "Le Mans",
        "name:ar": "\u0644\u0648 \u0645\u0627\u0646",
        "name:be": "\u041b\u0435 \u041c\u0430\u043d",
        "name:bg": "\u041b\u044c\u043e \u041c\u0430\u043d",
        "name:bn": "\u09b2\u09cd\u09af \u09ae\u0981\u09b8",
        "name:br": "Ar Ma\u00f1s",
        "name:fa": "\u0644\u0648 \u0645\u0627\u0646",
        "name:fr": "Le Mans",
        "name:he": "\u05dc\u05d4 \u05de\u05d0\u05df",
        "name:ja": "\u30eb\u30fb\u30de\u30f3",
        "name:ka": "\u10da\u10d4-\u10db\u10d0\u10dc\u10d8",
        "name:ko": "\ub974\ub9dd",
        "name:la": "Vindunum",
        "name:lt": "Le Manas",
        "name:lv": "Lem\u0101na",
        "name:mk": "\u041b\u0435 \u041c\u0430\u043d",
        "name:mzn": "\u0644\u0648\u0645\u0627\u0646",
        "name:oc": "Lo Mans",
        "name:pnb": "\u0644\u06cc \u0645\u0627\u0646\u0633",
        "name:ru": "\u041b\u0435 \u041c\u0430\u043d",
        "name:sr": "\u041b\u0435 \u041c\u0430\u043d",
        "name:uk": "\u041b\u0435 \u041c\u0430\u043d",
        "name:ur": "\u0644\u0648 \u0645\u0627\u0646",
        "name:zh": "\u52d2\u8292",
        "population": "143240",
        "ref:FR:SIREN": "217201813",
        "ref:INSEE": "72181",
        "source:population": "INSEE 2011",
        "type": "boundary",
        "website": "http://www.lemans.fr/",
        "wikidata": "Q1476",
        "wikipedia": "fr:Le Mans"
    },
    "population": 143240.0,
    "lat": 48.0078497,
    "lon": 0.1997933
}