{
    "bounds": {
        "minlat": 49.4516697,
        "minlon": 0.0667992,
        "maxlat": 49.5401463,
        "maxlon": 0.1955556
    },
    "id": 104492,
    "tags": {
        "addr:postcode": "76600;76610;76620",
        "admin_level": "8",
        "boundary": "administrative",
        "capital": "7",
        "name": "Le Havre",
        "name:ar": "\u0644\u0648 \u0647\u0627\u0641\u0631",
        "name:az": "Havr",
        "name:be": "\u0413\u0430\u045e\u0440",
        "name:bg": "\u0425\u0430\u0432\u044a\u0440",
        "name:br": "An Havr-Nevez",
        "name:el": "\u03a7\u03ac\u03b2\u03c1\u03b7",
        "name:eo": "Havro",
        "name:es": "El Havre",
        "name:fa": "\u0644\u0648 \u0622\u0648\u0631",
        "name:fr": "Le Havre",
        "name:gl": "O Havre",
        "name:he": "\u05dc\u05d4 \u05d4\u05d1\u05e8",
        "name:hy": "\u0540\u0561\u057e\u0580",
        "name:ja": "\u30eb\u30fb\u30a2\u30fc\u30f4\u30eb",
        "name:ka": "\u10f0\u10d0\u10d5\u10e0\u10d8",
        "name:kk": "\u0413\u0430\u0432\u0440",
        "name:ko": "\ub974\uc544\ube0c\ub974",
        "name:la": "Portus-Gratiae",
        "name:lt": "Havras",
        "name:lv": "Havra",
        "name:mk": "\u0410\u0432\u0440",
        "name:mr": "\u0932\u093e \u0906\u0935\u094d\u0930",
        "name:mzn": "\u0644\u0648 \u0627\u0648\u0631",
        "name:pl": "Hawr",
        "name:pnb": "\u0644\u06cc \u06c1\u0627\u0648\u0631",
        "name:ru": "\u0413\u0430\u0432\u0440",
        "name:sr": "\u0410\u0432\u0440",
        "name:ta": "\u0bb2\u0bc7 \u0b86\u0bb5\u0bb0\u0bcd",
        "name:th": "\u0e40\u0e25\u0e2d\u0e2d\u0e32\u0e1f\u0e27\u0e23\u0e4c",
        "name:uk": "\u0413\u0430\u0432\u0440",
        "name:ur": "\u0644\u0648 \u0622\u0648\u0631",
        "name:yue": "\u590f\u83ef",
        "name:zh": "\u52d2\u963f\u5f17\u5c14",
        "old_name": "Havre-de-Gr\u00e2ce",
        "old_name:fr": "Havre-de-Gr\u00e2ce",
        "old_name:la": "Franciscopolis",
        "population": "175497",
        "ref:INSEE": "76351",
        "ref:LOCODE": "FRLEH",
        "ref:SIREN": "217603513",
        "source:population": "INSEE 2013",
        "type": "boundary",
        "wikidata": "Q42810",
        "wikipedia": "fr:Le Havre"
    },
    "population": 175497.0,
    "lat": 49.4938975,
    "lon": 0.1079732
}