{
    "bounds": {
        "minlat": 45.3715387,
        "minlon": 4.2442969,
        "maxlat": 45.4767081,
        "maxlon": 4.4888583
    },
    "id": 117905,
    "tags": {
        "FIXME": "compl\u00e9ter les quartiers de Saint-Etienne, dont la commune associ\u00e9e de Rochetaill\u00e9e",
        "addr:postcode": "42000;42100",
        "admin_level": "8",
        "boundary": "administrative",
        "loc_name": "Saint\u00e9",
        "name": "Saint-\u00c9tienne",
        "name:br": "Sant-Steven",
        "name:frp": "Sant-Eti\u00e8ve",
        "name:oc": "Sant Est\u00e8ve",
        "name:ru": "\u0421\u0435\u043d\u0442-\u042d\u0442\u044c\u0435\u043d",
        "name:sr": "\u0421\u0435\u043d\u0442 \u0415\u0442\u0458\u0435\u043d",
        "old_name:1969-10-18-1970-01-01": "Saint-\u00c9tienne-sur-Loire",
        "population": "171260",
        "ref:INSEE": "42218",
        "source:population": "INSEE 2013",
        "type": "boundary",
        "wikidata": "Q42716",
        "wikipedia": "fr:Saint-\u00c9tienne"
    },
    "population": 171260.0,
    "lat": 45.4401467,
    "lon": 4.3873058
}