{
    "bounds": {
        "minlat": 49.0608244,
        "minlon": 6.1360042,
        "maxlat": 49.1487955,
        "maxlon": 6.256451
    },
    "id": 450381,
    "tags": {
        "addr:postcode": "57000;57050;57070",
        "admin_level": "8",
        "boundary": "administrative",
        "capital": "6",
        "name": "Metz",
        "name:am": "\u1218\u1275\u12dd",
        "name:ar": "\u0645\u062a\u0632",
        "name:be": "\u041c\u0435\u0446",
        "name:bg": "\u041c\u0435\u0446",
        "name:bo": "\u0f58\u0f7a\u0f0b\u0f4a\u0f72\u0f0b\u0f5b\u0f72\u0f0d",
        "name:cs": "Mety",
        "name:el": "\u039c\u03b5\u03c4\u03c2",
        "name:fa": "\u0645\u062a\u0632",
        "name:fr": "Metz",
        "name:he": "\u05de\u05e5",
        "name:hy": "\u0544\u0565\u0581",
        "name:ja": "\u30e1\u30b9",
        "name:jv": "M\u00e9tz",
        "name:ka": "\u10db\u10d4\u10ea\u10d8",
        "name:kk": "\u041c\u0435\u0446",
        "name:ko": "\uba54\uc2a4",
        "name:la": "Mettis",
        "name:lt": "Mecas",
        "name:lv": "Meca",
        "name:mk": "\u041c\u0435\u0446",
        "name:mr": "\u092e\u0947\u0938",
        "name:mzn": "\u0645\u062a\u0632",
        "name:oc": "M\u00e8tz",
        "name:pfl": "Meds",
        "name:pnb": "\u0645\u06cc\u0679\u0632",
        "name:ru": "\u041c\u0435\u0446",
        "name:sr": "\u041c\u0435\u0446",
        "name:ta": "\u0bae\u0bc6\u0b9f\u0bcd\u0b9a\u0bc1",
        "name:th": "\u0e41\u0e21\u0e47\u0e2a",
        "name:udm": "\u041c\u0435\u0446",
        "name:uk": "\u041c\u0435\u0446",
        "name:ur": "\u0645\u06cc\u062a\u0632",
        "name:yi": "\u05de\u05e2\u05e5",
        "name:zh": "\u6885\u65af",
        "old_name:la": "Divodurum-Mediomatricorum",
        "population": "120738",
        "ref:FR:SIREN": "215704636",
        "ref:INSEE": "57463",
        "source:population": "INSEE 2013",
        "type": "boundary",
        "website": "http://www.metz.fr/",
        "wikidata": "Q22690",
        "wikipedia": "fr:Metz"
    },
    "population": 120738.0,
    "lat": 49.1196964,
    "lon": 6.1763552
}