{
    "bounds": {
        "minlat": 49.846837,
        "minlon": 2.2235574,
        "maxlat": 49.9505487,
        "maxlon": 2.3457767
    },
    "id": 114347,
    "tags": {
        "addr:postcode": "80000",
        "admin_level": "8",
        "boundary": "administrative",
        "capital": "4",
        "name": "Amiens",
        "name:ar": "\u0623\u0645\u064a\u0627\u0646",
        "name:be": "\u0410\u043c\u2019\u0435\u043d",
        "name:el": "\u0391\u03bc\u03b9\u03ac\u03bd",
        "name:fa": "\u0627\u0645\u06cc\u0627\u0646",
        "name:fr": "Amiens",
        "name:he": "\u05d0\u05de\u05d9\u05d9\u05df",
        "name:hy": "\u0531\u0574\u0575\u0565\u0576",
        "name:ja": "\u30a2\u30df\u30a2\u30f3",
        "name:ka": "\u10d0\u10db\u10d8\u10d4\u10dc\u10d8",
        "name:ko": "\uc544\ubbf8\uc575",
        "name:la": "Samarobriva",
        "name:lt": "Amjenas",
        "name:mr": "\u0906\u092e\u093f\u092f\u093e\u0902",
        "name:ru": "\u0410\u043c\u044c\u0435\u043d",
        "name:sr": "\u0410\u043c\u0458\u0435\u043d",
        "name:th": "\u0e2d\u0e32\u0e40\u0e21\u0e35\u0e22\u0e07",
        "name:uk": "\u0410\u043c\u2019\u0435\u043d",
        "name:ur": "\u0627\u0645\u06cc\u0627\u0646",
        "name:zh": "\u4e9e\u7720",
        "population": "133327",
        "ref:FR:SIREN": "218000198",
        "ref:INSEE": "80021",
        "source:addr:postcode": "source of postcode is from osm nodes",
        "source:population": "INSEE 2011",
        "type": "boundary",
        "website": "http://www.amiens.fr/",
        "wikidata": "Q41604",
        "wikipedia": "fr:Amiens"
    },
    "population": 133327.0,
    "lat": 49.8941708,
    "lon": 2.2956951
}