{
    "bounds": {
        "minlat": 47.8132802,
        "minlon": 1.8757578,
        "maxlat": 47.9335389,
        "maxlon": 1.9487114
    },
    "id": 147559,
    "tags": {
        "addr:postcode": "45000;45100",
        "admin_level": "8",
        "boundary": "administrative",
        "name": "Orl\u00e9ans",
        "name:ar": "\u0623\u0648\u0631\u0644\u064a\u0627\u0646",
        "name:el": "\u039f\u03c1\u03bb\u03b5\u03ac\u03bd\u03b7",
        "name:es": "Orleans",
        "name:he": "\u05d0\u05d5\u05e8\u05dc\u05d9\u05d0\u05df",
        "name:ja": "\u30aa\u30eb\u30ec\u30a2\u30f3",
        "name:la": "Cenabum",
        "name:lt": "Orleanas",
        "name:oc": "Orleans",
        "name:pl": "Orlean",
        "name:pt": "Orle\u00e3es",
        "name:ru": "\u041e\u0440\u043b\u0435\u0430\u043d",
        "name:sr": "\u041e\u0440\u043b\u0435\u0430\u043d",
        "name:uk": "\u041e\u0440\u043b\u0435\u0430\u043d",
        "population": "114167",
        "ref:INSEE": "45234",
        "source:population": "INSEE 2013",
        "type": "boundary",
        "wikidata": "Q6548",
        "wikipedia": "fr:Orl\u00e9ans"
    },
    "population": 114167.0,
    "lat": 47.9027336,
    "lon": 1.9086066
}