{
    "bounds": {
        "minlat": 14.5900261,
        "minlon": -61.1030216,
        "maxlat": 14.7083688,
        "maxlon": -61.034337
    },
    "id": 290031,
    "tags": {
        "addr:postcode": "97200",
        "admin_level": "8",
        "alt_name": "Foyal",
        "alt_name:gcf": "Fodfrans",
        "boundary": "administrative",
        "capital": "yes",
        "name": "Fort-de-France",
        "name:ar": "\u0641\u0648\u0631 \u062f\u0648 \u0641\u0631\u0627\u0646\u0633",
        "name:be": "\u0424\u043e\u0440\u0442-\u0434\u044d-\u0424\u0440\u0430\u043d\u0441",
        "name:be-tarask": "\u0424\u043e\u0440\u0442-\u0434\u044d-\u0424\u0440\u0430\u043d\u0441",
        "name:bg": "\u0424\u043e\u0440 \u0434\u044c\u043e \u0424\u0440\u0430\u043d\u0441",
        "name:el": "\u03a6\u03bf\u03c1-\u03bd\u03c4\u03b5-\u03a6\u03c1\u03b1\u03bd\u03c2",
        "name:fa": "\u0641\u0648\u0631-\u062f\u0648-\u0641\u0631\u0627\u0646\u0633",
        "name:frp": "F\u00f4rt-de-France",
        "name:gcf": "Fodwans",
        "name:he": "\u05e4\u05d5\u05e8-\u05d3\u05d4-\u05e4\u05e8\u05d0\u05e0\u05e1",
        "name:ja": "\u30d5\u30a9\u30fc\u30eb\uff1d\u30c9\uff1d\u30d5\u30e9\u30f3\u30b9",
        "name:ka": "\u10e4\u10dd\u10e0-\u10d3\u10d4-\u10e4\u10e0\u10d0\u10dc\u10e1\u10d8",
        "name:ko": "\ud3ec\ub974\ub4dc\ud504\ub791\uc2a4",
        "name:lt": "For de Fransas",
        "name:lv": "Fordefransa",
        "name:mr": "\u092b\u094b\u0930\u094d\u091f-\u0926\u0947-\u092b\u094d\u0930\u093e\u0928\u094d\u0938",
        "name:mzn": "\u0641\u0648\u0631 \u062f\u0648 \u0641\u0631\u0627\u0646\u0633",
        "name:os": "\u0424\u043e\u0440-\u0434\u0435-\u0424\u0440\u0430\u043d\u0441",
        "name:pnb": "\u0641\u0648\u0631\u0679 \u0688\u06cc \u0641\u0631\u0627\u0646\u0633",
        "name:ru": "\u0424\u043e\u0440-\u0434\u0435-\u0424\u0440\u0430\u043d\u0441",
        "name:sr": "\u0424\u043e\u0440 \u0434\u0435 \u0424\u0440\u0430\u043d\u0441",
        "name:th": "\u0e1f\u0e2d\u0e23\u0e4c-\u0e40\u0e14\u0e2d-\u0e1f\u0e23\u0e47\u0e2d\u0e07\u0e2a\u0e4c",
        "name:uk": "\u0424\u043e\u0440-\u0434\u0435-\u0424\u0440\u0430\u043d\u0441",
        "name:zh": "\u6cd5\u5170\u897f\u5821",
        "old_name": "Fort Royal",
        "population": "87216",
        "ref:INSEE": "97209",
        "source:population": "INSEE 2013",
        "type": "boundary",
        "wikidata": "Q81621",
        "wikipedia": "fr:Fort-de-France"
    },
    "population": 87216.0,
    "lat": 14.6027962,
    "lon": -61.0676724
}