{
    "bounds": {
        "minlat": 48.491861,
        "minlon": 7.6881371,
        "maxlat": 48.6461896,
        "maxlon": 7.8360646
    },
    "id": 71033,
    "tags": {
        "admin_level": "8",
        "boundary": "administrative",
        "name": "Strasbourg",
        "name:am": "\u1235\u1275\u122b\u12dd\u1261\u122d\u130d",
        "name:ang": "Str\u01e3tburg",
        "name:ar": "\u0633\u062a\u0631\u0627\u0633\u0628\u0648\u0631\u063a",
        "name:az": "Strasburq",
        "name:bar": "Str\u00e5ssburg",
        "name:be": "\u0421\u0442\u0440\u0430\u0441\u0431\u0443\u0440\u0433",
        "name:bg": "\u0421\u0442\u0440\u0430\u0441\u0431\u0443\u0440\u0433",
        "name:bo": "\u0f66\u0f72\u0f0b\u0f50\u0f72\u0f0b\u0f62\u0f71\u0f0b\u0f66\u0f72\u0f0b\u0f56\u0f74\u0f62\u0f0d",
        "name:br": "Stra\u00dfburg",
        "name:ca": "Estrasburg",
        "name:ckb": "\u0633\u062a\u0631\u0627\u0633\u0628\u0648\u0631\u06af",
        "name:co": "Strasburgu",
        "name:cs": "\u0160trasburk",
        "name:cv": "\u0421\u0442\u0440\u0430\u0441\u0431\u0443\u0440\u0433",
        "name:cy": "Strasbwrg",
        "name:de": "Stra\u00dfburg",
        "name:el": "\u03a3\u03c4\u03c1\u03b1\u03c3\u03b2\u03bf\u03cd\u03c1\u03b3\u03bf",
        "name:eml": "Stra\u015bb\u00fbrg",
        "name:eo": "Strasburgo",
        "name:es": "Estrasburgo",
        "name:eu": "Estrasburgo",
        "name:ext": "Estrasburgu",
        "name:fa": "\u0627\u0633\u062a\u0631\u0627\u0633\u0628\u0648\u0631\u06af",
        "name:fr": "Strasbourg",
        "name:frp": "Strasb\u00f4rg",
        "name:fy": "Straasburch",
        "name:gl": "Estrasburgo",
        "name:gsw": "Strossb\u00fcri",
        "name:gu": "\u0ab8\u0acd\u0a9f\u0acd\u0ab0\u0abe\u0ab8\u0aac\u0acb\u0ab0\u0acd\u0a97",
        "name:he": "\u05e9\u05d8\u05e8\u05e1\u05d1\u05d5\u05e8\u05d2",
        "name:hi": "\u0938\u094d\u091f\u094d\u0930\u093e\u0938\u092c\u0930\u094d\u0917",
        "name:ht": "Estrasbou",
        "name:hy": "\u054d\u057f\u0580\u0561\u057d\u0562\u0578\u0582\u0580\u0563",
        "name:it": "Strasburgo",
        "name:ja": "\u30b9\u30c8\u30e9\u30b9\u30d6\u30fc\u30eb",
        "name:ka": "\u10e1\u10e2\u10e0\u10d0\u10e1\u10d1\u10e3\u10e0\u10d8",
        "name:kab": "Strassburg",
        "name:ko": "\uc2a4\ud2b8\ub77c\uc2a4\ubd80\ub974",
        "name:ku": "Strasb\u00fbrg",
        "name:la": "Argentoratum",
        "name:lad": "Strasburgo",
        "name:lb": "Stroossbuerg",
        "name:li": "Sjtraasburg",
        "name:lt": "Strasb\u016bras",
        "name:lv": "Strasb\u016bra",
        "name:mk": "\u0421\u0442\u0440\u0430\u0437\u0431\u0443\u0440",
        "name:mr": "\u0938\u094d\u0924\u094d\u0930\u093e\u0938\u092c\u0941\u0930\u094d\u0917",
        "name:mt": "Stra\u017cburgu",
        "name:mzn": "\u0627\u0633\u062a\u0631\u0627\u0633\u0628\u0648\u0631\u06af",
        "name:nap": "Strasburgo",
        "name:nds": "Stra\u00dfborg",
        "name:nl": "Straatsburg",
        "name:oc": "Estrasborg",
        "name:os": "\u0421\u0442\u0440\u0430\u0441\u0431\u0443\u0440\u0433",
        "name:pfl": "Stroosburi",
        "name:pl": "Strasburg",
        "name:pms": "Strasborgh",
        "name:pnb": "\u0634\u0679\u0631\u0627\u0633\u0628\u0631\u06af",
        "name:pt": "Estrasburgo",
        "name:ru": "\u0421\u0442\u0440\u0430\u0441\u0431\u0443\u0440\u0433",
        "name:scn": "Strasburgu",
        "name:sk": "\u0160trasburg",
        "name:sr": "\u0421\u0442\u0440\u0430\u0437\u0431\u0443\u0440",
        "name:stq": "Straasbuurich",
        "name:ta": "\u0bb8\u0bcd\u0ba4\u0bbf\u0bb0\u0bbe\u0bb8\u0bcd\u0baa\u0bc2\u0bb0\u0bcd\u0b95\u0bcd",
        "name:th": "\u0e2a\u0e17\u0e23\u0e32\u0e0b\u0e1a\u0e39\u0e23\u0e4c",
        "name:tr": "Strazburg",
        "name:ug": "Strasburg",
        "name:uk": "\u0421\u0442\u0440\u0430\u0441\u0431\u0443\u0440\u0433",
        "name:ur": "\u0633\u062a\u0631\u0627\u0633\u0628\u0648\u0631\u06af",
        "name:uz": "Strasburg",
        "name:vec": "Strasburgo",
        "name:yi": "\u05e9\u05d8\u05e8\u05d0\u05e1\u05d1\u05d5\u05e8\u05d2",
        "name:yue": "\u65af\u7279\u62c9\u65af\u5821",
        "name:zh": "\u65af\u7279\u62c9\u65af\u5821",
        "population": "271782",
        "postal_code": "67000;67100;67200",
        "ref:INSEE": "67482",
        "source:population": "INSEE 2013",
        "type": "boundary",
        "website": "http://www.strasbourg.eu",
        "wikidata": "Q6602",
        "wikipedia": "fr:Strasbourg"
    },
    "population": 271782.0,
    "lat": 48.584614,
    "lon": 7.7507127
}