{
    "bounds": {
        "minlat": 47.4373546,
        "minlon": -0.6176931,
        "maxlat": 47.5262993,
        "maxlon": -0.5085527
    },
    "id": 178351,
    "tags": {
        "addr:postcode": "49000;49100",
        "admin_level": "8",
        "boundary": "administrative",
        "capital": "6",
        "name": "Angers",
        "name:am": "\u12a0\u1295\u12e4",
        "name:ar": "\u0623\u0646\u062c\u064a\u0647",
        "name:az": "Anje",
        "name:be": "\u0410\u043d\u0436\u044d",
        "name:bg": "\u0410\u043d\u0436\u0435",
        "name:br": "A\u00f1je",
        "name:crh": "Anje",
        "name:el": "\u0391\u03bd\u03b6\u03ad",
        "name:fa": "\u0622\u0646\u0698\u0647",
        "name:fr": "Angers",
        "name:he": "\u05d0\u05e0\u05d6'\u05d4",
        "name:ht": "Anje",
        "name:ja": "\u30a2\u30f3\u30b8\u30a7",
        "name:ka": "\u10d0\u10dc\u10df\u10d4",
        "name:ko": "\uc559\uc81c",
        "name:la": "Andecavis",
        "name:lt": "An\u017e\u0117",
        "name:lv": "An\u017e\u0113",
        "name:mr": "\u0905\u0901\u091c\u0940",
        "name:mrj": "\u0410\u043d\u0436\u0435",
        "name:mzn": "\u0622\u0646\u0698\u0648",
        "name:oc": "Angieus",
        "name:pnb": "\u0627\u06cc\u0646\u06af\u0631\u0632",
        "name:ru": "\u0410\u043d\u0436\u0435",
        "name:sr": "\u0410\u043d\u0436\u0435\u0440",
        "name:uk": "\u0410\u043d\u0436\u0435",
        "name:ur": "\u0622\u0646\u0698\u06c1",
        "name:uz": "Anje",
        "name:vec": "Anzier",
        "name:zh": "\u6602\u70ed",
        "old_name:la": "Juliomagus",
        "population": "149017",
        "ref:FR:SIREN": "214900078",
        "ref:INSEE": "49007",
        "source:population": "INSEE 2012",
        "type": "boundary",
        "website": "http://www.angers.fr/",
        "wikidata": "Q38380",
        "wikipedia": "fr:Angers"
    },
    "population": 149017.0,
    "lat": 47.4739884,
    "lon": -0.5515588
}