{
    "bounds": {
        "minlat": 43.1020409,
        "minlon": 5.8795028,
        "maxlat": 43.171494,
        "maxlon": 5.9873841
    },
    "id": 35280,
    "tags": {
        "addr:postcode": "83000;83100;83200",
        "admin_level": "8",
        "boundary": "administrative",
        "name": "Toulon",
        "name:ca": "Tol\u00f3",
        "name:el": "\u03a4\u03bf\u03c5\u03bb\u03cc\u03bd",
        "name:es": "Tol\u00f3n",
        "name:hi": "\u0924\u0941\u0932\u094b\u0902",
        "name:it": "Tolone",
        "name:ja": "\u30c8\u30a5\u30fc\u30ed\u30f3",
        "name:lt": "Tulonas",
        "name:oc": "Tolon",
        "name:pl": "Tulon",
        "name:ru": "\u0422\u0443\u043b\u043e\u043d",
        "name:sr": "\u0422\u0443\u043b\u043e\u043d",
        "name:uk": "\u0422\u0443\u043b\u043e\u043d",
        "population": "164532",
        "ref:INSEE": "83137",
        "source:population": "INSEE 2013",
        "type": "boundary",
        "wikidata": "Q44160",
        "wikipedia": "fr:Toulon"
    },
    "population": 164532.0,
    "lat": 43.1257311,
    "lon": 5.9304919
}