{
    "bounds": {
        "minlat": 42.6492606,
        "minlon": 2.8265889,
        "maxlat": 42.7488722,
        "maxlon": 2.9825668
    },
    "id": 18000,
    "tags": {
        "addr:postcode": "66000;66100",
        "admin_level": "8",
        "boundary": "administrative",
        "capital": "6",
        "is_in:iso_3166_2": "FR-66",
        "name": "Perpignan",
        "name:an": "Perpi\u00f1\u00e1n",
        "name:ar": "\u0628\u064a\u0631\u0628\u064a\u0646\u064a\u0627",
        "name:be": "\u041f\u0435\u0440\u043f\u0456\u043d\u044c\u044f\u043d",
        "name:bg": "\u041f\u0435\u0440\u043f\u0438\u043d\u044f\u043d",
        "name:br": "Perpiny\u00e0",
        "name:ca": "Perpiny\u00e0",
        "name:el": "\u03a0\u03b5\u03c1\u03c0\u03b9\u03bd\u03b9\u03ac\u03bd",
        "name:eo": "Perpinjano",
        "name:es": "Perpi\u00f1\u00e1n",
        "name:eu": "Perpiny\u00e0",
        "name:ext": "Perpi\u00f1\u00e1n",
        "name:fa": "\u067e\u0631\u067e\u06cc\u0646\u06cc\u0627\u0646",
        "name:fr": "Perpignan",
        "name:gl": "Perpi\u00f1\u00e1n",
        "name:he": "\u05e4\u05e8\u05e4\u05d9\u05e0\u05d9\u05d0\u05df",
        "name:hi": "\u092a\u0947\u0930\u094d\u092a\u093f\u091e\u093e\u0902",
        "name:ia": "Perpinia",
        "name:it": "Perpignano",
        "name:ja": "\u30da\u30eb\u30d4\u30cb\u30e3\u30f3",
        "name:kk": "\u041f\u0435\u0440\u043f\u0438\u043d\u044c\u044f\u043d",
        "name:ko": "\ud398\ub974\ud53c\ub0e5",
        "name:la": "Perpinianum",
        "name:lt": "Perpinjanas",
        "name:lv": "Perpi\u0146\u0101na",
        "name:mzn": "\u067e\u0631\u067e\u06cc\u0646\u0627\u0646",
        "name:oc": "Perpinhan",
        "name:os": "\u041f\u0435\u0440\u043f\u0438\u043d\u044c\u044f\u043d",
        "name:pnb": "\u067e\u0631\u067e\u06af\u0646\u0627\u06ba",
        "name:pt": "Perpinh\u00e3",
        "name:ru": "\u041f\u0435\u0440\u043f\u0438\u043d\u044c\u044f\u043d",
        "name:sr": "\u041f\u0435\u0440\u043f\u0438\u045a\u0430\u043d",
        "name:uk": "\u041f\u0435\u0440\u043f\u0456\u043d\u044c\u044f\u043d",
        "name:ur": "\u067e\u0631\u067e\u06cc\u0646\u06cc\u0627",
        "name:wuu": "\u73ed\u5408\u6bd4\u8ba9",
        "name:yi": "\u05e4\u05e2\u05e8\u05e4\u05d9\u05e0\u05d9\u05d0\u05df",
        "name:yue": "\u4f69\u76ae\u5c3c\u6602",
        "name:zh": "\u4f69\u76ae\u5c3c\u6602",
        "population": "117419",
        "ref:FR:SIREN": "216601369",
        "ref:INSEE": "66136",
        "source:population": "INSEE 2013",
        "type": "boundary",
        "website": "http://www.mairie-perpignan.fr/",
        "wikidata": "Q6730",
        "wikipedia": "fr:Perpignan"
    },
    "population": 117419.0,
    "lat": 42.6953868,
    "lon": 2.8844713
}