{
    "bounds": {
        "minlat": 43.1696205,
        "minlon": 5.2286902,
        "maxlat": 43.3910329,
        "maxlon": 5.5324758
    },
    "id": 76469,
    "tags": {
        "addr:postcode": "13000",
        "admin_level": "8",
        "alt_name:vi": "M\u00e1c-x\u00e2y",
        "boundary": "administrative",
        "name": "Marseille",
        "name:ast": "Marsella",
        "name:br": "Marsilha",
        "name:ca": "Marsella",
        "name:el": "\u039c\u03b1\u03c3\u03c3\u03b1\u03bb\u03af\u03b1",
        "name:es": "Marsella",
        "name:it": "Marsiglia",
        "name:ja": "\u30de\u30eb\u30bb\u30a4\u30e6",
        "name:kn": "\u0cae\u0cbe\u0cb0\u0ccd\u0cb8\u0cc7\u0caf",
        "name:ko": "\ub9c8\ub974\uc138\uc720",
        "name:ku": "Mars\u00eay",
        "name:la": "Massalia",
        "name:lt": "Marselis",
        "name:oc": "Marselha",
        "name:pl": "Marsylia",
        "name:pt": "Marselha",
        "name:ru": "\u041c\u0430\u0440\u0441\u0435\u043b\u044c",
        "name:sr": "\u041c\u0430\u0440\u0441\u0435\u0458",
        "name:tr": "Marsilya",
        "name:tt": "\u041c\u0430\u0440\u0441\u0435\u043b\u044c",
        "name:uk": "\u041c\u0430\u0440\u0441\u0435\u043b\u044c",
        "name:vi": "M\u1ea1c X\u00e2y",
        "name:zh": "\u9a6c\u8d5b",
        "population": "850726",
        "ref:INSEE": "13055",
        "source:name:br": "ofis publik ar brezhoneg",
        "source:name:oc": "ieo",
        "source:population": "INSEE 2013",
        "type": "boundary",
        "wikidata": "Q23482",
        "wikipedia": "fr:Marseille"
    },
    "population": 855393.0,
    "lat": 43.2961743,
    "lon": 5.3699525
}