{
    "bounds": {
        "minlat": 47.1805856,
        "minlon": -1.6418115,
        "maxlat": 47.2958583,
        "maxlon": -1.4788443
    },
    "id": 59874,
    "tags": {
        "addr:postcode": "44000;44100;44200;44300",
        "admin_level": "8",
        "alt_name:br": "An Naoned",
        "boundary": "administrative",
        "capital": "4",
        "name": "Nantes",
        "name:ar": "\u0646\u0627\u0646\u062a",
        "name:be": "\u041d\u0430\u043d\u0442",
        "name:bg": "\u041d\u0430\u043d\u0442",
        "name:br": "Naoned",
        "name:ca": "Nantes",
        "name:cy": "Naoned",
        "name:el": "\u039d\u03b1\u03bd\u03c4",
        "name:eo": "Nanto",
        "name:ext": "Nanti",
        "name:fa": "\u0646\u0627\u0646\u062a",
        "name:fr": "Nantes",
        "name:fr-x-gallo": "Nauntt",
        "name:ga": "Naoned",
        "name:gd": "Naoned",
        "name:gv": "Naoned",
        "name:he": "\u05e0\u05d0\u05e0\u05d8",
        "name:hi": "\u0928\u093e\u0902\u0924",
        "name:hy": "\u0546\u0561\u0576\u057f",
        "name:ja": "\u30ca\u30f3\u30c8",
        "name:ka": "\u10dc\u10d0\u10dc\u10e2\u10d8",
        "name:kk": "\u041d\u0430\u043d\u0442",
        "name:ko": "\ub0ad\ud2b8",
        "name:kw": "Naoned",
        "name:la": "Portus-Namnetum",
        "name:lt": "Nantas",
        "name:lv": "Nante",
        "name:mk": "\u041d\u0430\u043d\u0442",
        "name:mr": "\u0928\u093e\u0901\u0924",
        "name:mzn": "\u0646\u0627\u0646\u062a",
        "name:oc": "Nantas",
        "name:pa": "\u0a28\u0a4c\u0a02\u0a24",
        "name:pnb": "\u0646\u0627\u0646\u062a\u06cc\u0632",
        "name:ru": "\u041d\u0430\u043d\u0442",
        "name:sr": "\u041d\u0430\u043d\u0442",
        "name:ta": "\u0ba8\u0bbe\u0ba8\u0bcd\u0ba4\u0bc1",
        "name:th": "\u0e19\u0e47\u0e2d\u0e07\u0e15\u0e4c",
        "name:uk": "\u041d\u0430\u043d\u0442",
        "name:ur": "\u0646\u0627\u0646\u062a",
        "name:yi": "\u05e0\u05d0\u05e0\u05d8",
        "name:zh": "\u5357\u7279",
        "population": "291604",
        "ref:FR:SIREN": "214401093",
        "ref:INSEE": "44109",
        "source:population": "INSEE 2012",
        "type": "boundary",
        "website": "http://www.nantes.fr/",
        "wikidata": "Q12191",
        "wikipedia": "fr:Nantes"
    },
    "population": 300614.0,
    "lat": 47.2186371,
    "lon": -1.5541362
}