{
    "bounds": {
        "minlat": 43.6454189,
        "minlon": 7.1819535,
        "maxlat": 43.7607635,
        "maxlon": 7.323912
    },
    "id": 170100,
    "tags": {
        "addr:postcode": "06000;06100;06200;06300",
        "admin_level": "8",
        "boundary": "administrative",
        "name": "Nice",
        "name:Nissart": "Nissa",
        "name:ar": "\u0646\u064a\u0633",
        "name:br": "Nisa",
        "name:ca": "Ni\u00e7a",
        "name:de": "Nizza",
        "name:es": "Niza",
        "name:fi": "Nizza",
        "name:fr": "Nice",
        "name:it": "Nizza",
        "name:ja": "\u30cb\u30fc\u30b9",
        "name:ko": "\ub2c8\uc2a4",
        "name:lt": "Nica",
        "name:oc": "Ni\u00e7a",
        "name:pl": "Nicea",
        "name:pt": "Nice",
        "name:ru": "\u041d\u0438\u0446\u0446\u0430",
        "name:sl": "Nica",
        "name:sr": "\u041d\u0438\u0446\u0430",
        "name:uk": "\u041d\u0456\u0446\u0446\u0430",
        "population": "343304",
        "ref:FR:SIREN": "210600888",
        "ref:INSEE": "06088",
        "source:population": "INSEE 2013",
        "type": "boundary",
        "website": "http://www.nice.fr/",
        "wikidata": "Q33959",
        "wikipedia": "fr:Nice"
    },
    "population": 343304.0,
    "lat": 43.7009358,
    "lon": 7.2683912
}