{
    "bounds": {
        "minlat": 48.4271772,
        "minlon": 1.4598461,
        "maxlat": 48.468907,
        "maxlon": 1.5496446
    },
    "id": 276905,
    "tags": {
        "addr:postcode": "28000",
        "admin_level": "8",
        "boundary": "administrative",
        "capital": "6",
        "name": "Chartres",
        "name:am": "\u123b\u122d\u1275\u1228",
        "name:ar": "\u0634\u0627\u0631\u062a\u0631",
        "name:be": "\u0428\u0430\u0440\u0442\u0440",
        "name:bg": "\u0428\u0430\u0440\u0442\u044a\u0440",
        "name:br": "Chartrez",
        "name:el": "\u03a3\u03b1\u03c1\u03c4\u03c1",
        "name:fa": "\u0634\u0627\u0631\u062a\u0631",
        "name:fr": "Chartres",
        "name:he": "\u05e9\u05d0\u05e8\u05d8\u05e8",
        "name:hy": "\u0547\u0561\u0580\u057f\u0580",
        "name:ja": "\u30b7\u30e3\u30eb\u30c8\u30eb",
        "name:ka": "\u10e8\u10d0\u10e0\u10e2\u10e0\u10d8",
        "name:ko": "\uc0e4\ub974\ud2b8\ub974",
        "name:la": "Carnotes",
        "name:lt": "\u0160artras",
        "name:lv": "\u0160artra",
        "name:mzn": "\u0634\u0627\u0631\u062a\u0631",
        "name:ru": "\u0428\u0430\u0440\u0442\u0440",
        "name:sr": "\u0428\u0430\u0440\u0442\u0440",
        "name:uk": "\u0428\u0430\u0440\u0442\u0440",
        "name:zh": "\u6c99\u7279\u5c14",
        "old_name:la": "Autricum",
        "population": "38889",
        "ref:FR:SIREN": "212800858",
        "ref:INSEE": "28085",
        "source:addr:postcode": "source of postcode is from osm nodes",
        "source:population": "INSEE 2012",
        "type": "boundary",
        "website": "http://www.ville-chartres.fr/",
        "wikidata": "Q130272",
        "wikipedia": "fr:Chartres"
    },
    "population": 38889.0,
    "lat": 48.4470039,
    "lon": 1.4866387
}