{
    "bounds": {
        "minlat": 45.7556941,
        "minlon": 3.0532561,
        "maxlat": 45.8183838,
        "maxlon": 3.1721761
    },
    "id": 110866,
    "tags": {
        "admin_level": "8",
        "boundary": "administrative",
        "name": "Clermont-Ferrand",
        "name:ar": "\u0643\u0644\u064a\u0631\u0645\u0648\u0646-\u0641\u064a\u0631\u0627\u0646",
        "name:az": "Klermon-Feran",
        "name:be": "\u041a\u043b\u0435\u0440\u043c\u043e\u043d-\u0424\u0435\u0440\u0430\u043d",
        "name:bg": "\u041a\u043b\u0435\u0440\u043c\u043e\u043d-\u0424\u0435\u0440\u0430\u043d",
        "name:ca": "Clarmont-d'Alv\u00e8rnia",
        "name:el": "\u039a\u03bb\u03b5\u03c1\u03bc\u03cc\u03bd-\u03a6\u03b5\u03c1\u03ac\u03bd",
        "name:fa": "\u06a9\u0644\u0631\u0645\u0648\u0646-\u0641\u0631\u0627\u0646",
        "name:fr": "Clermont-Ferrand",
        "name:frp": "Cll\u00e2rmont-F\u00e8rrand",
        "name:he": "\u05e7\u05dc\u05e8\u05de\u05d5\u05df-\u05e4\u05e8\u05d0\u05df",
        "name:hi": "\u0915\u094d\u0932\u0947\u0930\u092e\u093e\u0901-\u092b\u093c\u0947\u0930\u093e\u0901",
        "name:hy": "\u053f\u056c\u0565\u0580\u0574\u0578\u0576-\u0556\u0565\u0580\u0561\u0576",
        "name:ja": "\u30af\u30ec\u30eb\u30e2\u30f3\uff1d\u30d5\u30a7\u30e9\u30f3",
        "name:ka": "\u10d9\u10da\u10d4\u10e0\u10db\u10dd\u10dc-\u10e4\u10d4\u10e0\u10d0\u10dc\u10d8",
        "name:ko": "\ud074\ub808\ub974\ubabd\ud398\ub791",
        "name:la": "Augustonemetum",
        "name:lt": "Klermonas-Feranas",
        "name:lv": "Klermonfer\u0101na",
        "name:mk": "\u041a\u043b\u0435\u0440\u043c\u043e\u043d-\u0424\u0435\u0440\u0430\u043d",
        "name:mr": "\u0915\u094d\u0932\u0947\u0930\u092e\u093e\u0901-\u092b\u0947\u0930\u093e\u0901",
        "name:mzn": "\u06a9\u0644\u0631\u0645\u0648\u0646-\u0641\u0631\u0627\u0646",
        "name:oc": "Clarmont d'Auv\u00e8rnhe",
        "name:pnb": "\u06a9\u0644\u06cc\u0645\u0648\u0646-\u0641\u06cc\u0631\u0627\u0646\u062f",
        "name:ru": "\u041a\u043b\u0435\u0440\u043c\u043e\u043d-\u0424\u0435\u0440\u0440\u0430\u043d",
        "name:sr": "\u041a\u043b\u0435\u0440\u043c\u043e\u043d-\u0424\u0435\u0440\u0430\u043d",
        "name:th": "\u0e41\u0e01\u0e25\u0e23\u0e4c\u0e21\u0e07-\u0e41\u0e1f\u0e23\u0e47\u0e2d\u0e07",
        "name:uk": "\u041a\u043b\u0435\u0440\u043c\u043e\u043d-\u0424\u0435\u0440\u0440\u0430\u043d",
        "name:zh": "\u514b\u83b1\u8499\u8d39\u6717",
        "population": "139860",
        "postal_code": "63000;63100",
        "ref:FR:SIREN": "216301135",
        "ref:INSEE": "63113",
        "source": "Orthophotographie CRAIG/TopoGEODIS 2009",
        "source:name:oc": "ieo-bdtopoc",
        "source:population": "INSEE 2013",
        "type": "boundary",
        "website": "http://www.clermont-ferrand.fr/",
        "wikidata": "Q42168",
        "wikipedia": "fr:Clermont-Ferrand"
    },
    "population": 139860.0,
    "lat": 45.7774551,
    "lon": 3.0819427
}