{
    "bounds": {
        "minlat": 49.4172001,
        "minlon": 1.0300648,
        "maxlat": 49.4652606,
        "maxlon": 1.1521157
    },
    "id": 75628,
    "tags": {
        "addr:postcode": "76000;76100",
        "admin_level": "8",
        "alt_name:fro": "Rodomo;Rodom",
        "boundary": "administrative",
        "name": "Rouen",
        "name:am": "\u1229\u12cb\u1295",
        "name:an": "Ru\u00e1n",
        "name:ang": "Ro\u00f0em",
        "name:ar": "\u0631\u0648\u0627\u0646",
        "name:ast": "Ruan",
        "name:az": "Ruan",
        "name:be": "\u0420\u0443\u0430\u043d",
        "name:bg": "\u0420\u0443\u0430\u043d",
        "name:br": "Rouan",
        "name:el": "\u03a1\u03bf\u03c5\u03ad\u03bd",
        "name:eo": "Rueno",
        "name:es": "Ruan",
        "name:fa": "\u0631\u0648\u0627\u0646",
        "name:fr": "Rouen",
        "name:fro": "Rothom",
        "name:fy": "Roeaan",
        "name:gl": "Ru\u00e1n",
        "name:he": "\u05e8\u05d5\u05d0\u05df",
        "name:hi": "\u0930\u0941\u0906\u0902",
        "name:hy": "\u054c\u0578\u0582\u0561\u0576",
        "name:is": "R\u00fa\u00f0uborg",
        "name:ja": "\u30eb\u30fc\u30a2\u30f3",
        "name:ka": "\u10e0\u10e3\u10d0\u10dc\u10d8",
        "name:kk": "\u0420\u0443\u0430\u043d",
        "name:ko": "\ub8e8\uc559",
        "name:la": "Rotomagus",
        "name:lt": "Ruanas",
        "name:lv": "Ru\u0101na",
        "name:mhr": "\u0420\u0443\u0430\u043d",
        "name:mk": "\u0420\u0443\u0430\u043d",
        "name:mr": "\u0930\u094b\u0906\u0901",
        "name:mzn": "\u0631\u0648\u0627\u0646",
        "name:nds-nl": "Roeaan",
        "name:oc": "Roan",
        "name:os": "\u0420\u0443\u0430\u043d",
        "name:pnb": "\u0631\u0624\u0646",
        "name:pt": "Ru\u00e3o",
        "name:ru": "\u0420\u0443\u0430\u043d",
        "name:sr": "\u0420\u0443\u0430\u043d",
        "name:th": "\u0e23\u0e39\u0e2d\u0e47\u0e2d\u0e07",
        "name:udm": "\u0420\u0443\u0430\u043d",
        "name:uk": "\u0420\u0443\u0430\u043d",
        "name:uz": "Ruan",
        "name:vec": "Rovan",
        "name:zea": "Roeaan",
        "name:zh": "\u9c81\u6602",
        "old_name:el": "\u03a1\u03b1\u03c4\u03cc-\u03bc\u03b1\u03b3\u03bf\u03db",
        "old_name:fr": "Ro\u00fcan",
        "population": "110933",
        "ref:INSEE": "76540",
        "source:population": "INSEE 2013",
        "type": "boundary",
        "wikidata": "Q30974",
        "wikipedia": "fr:Rouen"
    },
    "population": 110933.0,
    "lat": 49.4404591,
    "lon": 1.0939658
}